*******************************************************************************
 Revised: Jun 17, 2016           Ganymede / (Jupiter)                       503

 SATELLITE PHYSICAL PROPERTIES:
  Radius (km)             = 2634   +- 10     Density (g cm^-3)  =  1.94 +- 0.02
  Mass (10^20 kg )        = 1482   +- 1      Geometric Albedo   =  0.4

 SATELLITE ORBITAL DATA:
  Semi-major axis, a (km) = 1070.0428 (10^3) Orbital period     = 7.154553 d
  Eccentricity, e         = 0.0006           Rotational period  = Synchronous
  Inclination, i  (deg)   = 0.186
*******************************************************************************
 
 
*******************************************************************************
Ephemeris / WWW_USER Mon Jan 23 07:47:02 2017 Pasadena, USA      / Horizons    
*******************************************************************************
Target body name: Ganymede (503)                  {source: jup310}
Center body name: Jupiter (599)                   {source: jup310}
Center-site name: BODYCENTRIC
*******************************************************************************
Start time      : A.D. 2016-Nov-01 00:00:00.0000 UT      
Stop  time      : A.D. 2016-Dec-01 00:00:00.0000 UT      
Step-size       : 60 minutes
*******************************************************************************
Target pole/equ : IAU_GANYMEDE                    {East-longitude -}
Target radii    : 2631.2 x 2631.2 x 2631.2 km     {Equator, meridian, pole}    
Center geodetic : 0.00000000,0.00000000,0.0000000 {E-lon(deg),Lat(deg),Alt(km)}
Center cylindric: 0.00000000,0.00000000,0.0000000 {E-lon(deg),Dxy(km),Dz(km)}
Center pole/equ : IAU_JUPITER                     {East-longitude -}
Center radii    : 71492.0 x 71492.0 x 66854.0 km  {Equator, meridian, pole}    
Target primary  : Jupiter
Vis. interferer : GANYMEDE (R_eq= 2631.200) km    {source: jup310}
Rel. light bend : Sun, JUPITER                    {source: jup310}
Rel. lght bnd GM: 1.3271E+11, 1.2669E+08 km^3/s^2                              
Atmos refraction: NO (AIRLESS)
RA format       : DEG
Time format     : CAL 
EOP file        : eop.170120.p170413                                           
EOP coverage    : DATA-BASED 1962-JAN-20 TO 2017-JAN-20. PREDICTS-> 2017-APR-12
Units conversion: 1 au= 149597870.700 km, c= 299792.458 km/s, 1 day= 86400.0 s 
Table cut-offs 1: Elevation (-90.0deg=NO ),Airmass     n.a.    , Daylight (NO )
Table cut-offs 2: Solar Elongation (  0.0,180.0=NO ),Local Hour Angle( 0.0=NO )
Table format    : Comma Separated Values (spreadsheet)
*******************************************************************************
 Date__(UT)__HR:MN:SS, , ,   ObsEcLon,   ObsEcLat,
**************************************************
$$SOE
 2016-Nov-01 00:00:00, , ,357.9512697,  0.6766501,
 2016-Nov-01 01:00:00, , ,  0.0496328,  0.7564254,
 2016-Nov-01 02:00:00, , ,  2.1479148,  0.8351805,
 2016-Nov-01 03:00:00, , ,  4.2461217,  0.9128099,
 2016-Nov-01 04:00:00, , ,  6.3442589,  0.9892099,
 2016-Nov-01 05:00:00, , ,  8.4423316,  1.0642781,
 2016-Nov-01 06:00:00, , , 10.5403445,  1.1379140,
 2016-Nov-01 07:00:00, , , 12.6383017,  1.2100193,
 2016-Nov-01 08:00:00, , , 14.7362063,  1.2804975,
 2016-Nov-01 09:00:00, , , 16.8340612,  1.3492543,
 2016-Nov-01 10:00:00, , , 18.9318682,  1.4161979,
 2016-Nov-01 11:00:00, , , 21.0296287,  1.4812387,
 2016-Nov-01 12:00:00, , , 23.1273430,  1.5442900,
 2016-Nov-01 13:00:00, , , 25.2250111,  1.6052675,
 2016-Nov-01 14:00:00, , , 27.3226319,  1.6640898,
 2016-Nov-01 15:00:00, , , 29.4202039,  1.7206785,
 2016-Nov-01 16:00:00, , , 31.5177249,  1.7749582,
 2016-Nov-01 17:00:00, , , 33.6151919,  1.8268563,
 2016-Nov-01 18:00:00, , , 35.7126013,  1.8763040,
 2016-Nov-01 19:00:00, , , 37.8099491,  1.9232353,
 2016-Nov-01 20:00:00, , , 39.9072305,  1.9675879,
 2016-Nov-01 21:00:00, , , 42.0044404,  2.0093028,
 2016-Nov-01 22:00:00, , , 44.1015731,  2.0483247,
 2016-Nov-01 23:00:00, , , 46.1986225,  2.0846019,
 2016-Nov-02 00:00:00, , , 48.2955823,  2.1180864,
 2016-Nov-02 01:00:00, , , 50.3924458,  2.1487340,
 2016-Nov-02 02:00:00, , , 52.4892063,  2.1765042,
 2016-Nov-02 03:00:00, , , 54.5858569,  2.2013605,
 2016-Nov-02 04:00:00, , , 56.6823907,  2.2232703,
 2016-Nov-02 05:00:00, , , 58.7788010,  2.2422050,
 2016-Nov-02 06:00:00, , , 60.8750811,  2.2581400,
 2016-Nov-02 07:00:00, , , 62.9712241,  2.2710546,
 2016-Nov-02 08:00:00, , , 65.0672233,  2.2809323,
 2016-Nov-02 09:00:00, , , 67.1630720,  2.2877606,
 2016-Nov-02 10:00:00, , , 69.2587633,  2.2915312,
 2016-Nov-02 11:00:00, , , 71.3542902,  2.2922397,
 2016-Nov-02 12:00:00, , , 73.4496461,  2.2898860,
 2016-Nov-02 13:00:00, , , 75.5448243,  2.2844738,
 2016-Nov-02 14:00:00, , , 77.6398185,  2.2760113,
 2016-Nov-02 15:00:00, , , 79.7346229,  2.2645104,
 2016-Nov-02 16:00:00, , , 81.8292319,  2.2499873,
 2016-Nov-02 17:00:00, , , 83.9236408,  2.2324620,
 2016-Nov-02 18:00:00, , , 86.0178453,  2.2119587,
 2016-Nov-02 19:00:00, , , 88.1118417,  2.1885054,
 2016-Nov-02 20:00:00, , , 90.2056272,  2.1621340,
 2016-Nov-02 21:00:00, , , 92.2991996,  2.1328805,
 2016-Nov-02 22:00:00, , , 94.3925578,  2.1007844,
 2016-Nov-02 23:00:00, , , 96.4857011,  2.0658891,
 2016-Nov-03 00:00:00, , , 98.5786300,  2.0282417,
 2016-Nov-03 01:00:00, , ,100.6713456,  1.9878928,
 2016-Nov-03 02:00:00, , ,102.7638501,  1.9448967,
 2016-Nov-03 03:00:00, , ,104.8561463,  1.8993111,
 2016-Nov-03 04:00:00, , ,106.9482382,  1.8511971,
 2016-Nov-03 05:00:00, , ,109.0401304,  1.8006191,
 2016-Nov-03 06:00:00, , ,111.1318284,  1.7476448,
 2016-Nov-03 07:00:00, , ,113.2233386,  1.6923448,
 2016-Nov-03 08:00:00, , ,115.3146681,  1.6347930,
 2016-Nov-03 09:00:00, , ,117.4058249,  1.5750662,
 2016-Nov-03 10:00:00, , ,119.4968176,  1.5132439,
 2016-Nov-03 11:00:00, , ,121.5876557,  1.4494084,
 2016-Nov-03 12:00:00, , ,123.6783493,  1.3836446,
 2016-Nov-03 13:00:00, , ,125.7689090,  1.3160401,
 2016-Nov-03 14:00:00, , ,127.8593462,  1.2466846,
 2016-Nov-03 15:00:00, , ,129.9496728,  1.1756702,
 2016-Nov-03 16:00:00, , ,132.0399011,  1.1030914,
 2016-Nov-03 17:00:00, , ,134.1300440,  1.0290444,
 2016-Nov-03 18:00:00, , ,136.2201147,  0.9536275,
 2016-Nov-03 19:00:00, , ,138.3101270,  0.8769408,
 2016-Nov-03 20:00:00, , ,140.4000946,  0.7990861,
 2016-Nov-03 21:00:00, , ,142.4900318,  0.7201665,
 2016-Nov-03 22:00:00, , ,144.5799529,  0.6402867,
 2016-Nov-03 23:00:00, , ,146.6698726,  0.5595528,
 2016-Nov-04 00:00:00, , ,148.7598054,  0.4780718,
 2016-Nov-04 01:00:00, , ,150.8497660,  0.3959518,
 2016-Nov-04 02:00:00, , ,152.9397691,  0.3133018,
 2016-Nov-04 03:00:00, , ,155.0298293,  0.2302313,
 2016-Nov-04 04:00:00, , ,157.1199611,  0.1468508,
 2016-Nov-04 05:00:00, , ,159.2101789,  0.0632708,
 2016-Nov-04 06:00:00, , ,161.3004968, -0.0203976,
 2016-Nov-04 07:00:00, , ,163.3909289, -0.1040432,
 2016-Nov-04 08:00:00, , ,165.4814888, -0.1875551,
 2016-Nov-04 09:00:00, , ,167.5721902, -0.2708220,
 2016-Nov-04 10:00:00, , ,169.6630463, -0.3537334,
 2016-Nov-04 11:00:00, , ,171.7540702, -0.4361788,
 2016-Nov-04 12:00:00, , ,173.8452747, -0.5180486,
 2016-Nov-04 13:00:00, , ,175.9366725, -0.5992338,
 2016-Nov-04 14:00:00, , ,178.0282758, -0.6796262,
 2016-Nov-04 15:00:00, , ,180.1200964, -0.7591186,
 2016-Nov-04 16:00:00, , ,182.2121454, -0.8376051,
 2016-Nov-04 17:00:00, , ,184.3044336, -0.9149808,
 2016-Nov-04 18:00:00, , ,186.3969706, -0.9911425,
 2016-Nov-04 19:00:00, , ,188.4897653, -1.0659882,
 2016-Nov-04 20:00:00, , ,190.5828258, -1.1394180,
 2016-Nov-04 21:00:00, , ,192.6761595, -1.2113334,
 2016-Nov-04 22:00:00, , ,194.7697728, -1.2816382,
 2016-Nov-04 23:00:00, , ,196.8636714, -1.3502380,
 2016-Nov-05 00:00:00, , ,198.9578603, -1.4170407,
 2016-Nov-05 01:00:00, , ,201.0523439, -1.4819567,
 2016-Nov-05 02:00:00, , ,203.1471257, -1.5448987,
 2016-Nov-05 03:00:00, , ,205.2422084, -1.6057818,
 2016-Nov-05 04:00:00, , ,207.3375943, -1.6645242,
 2016-Nov-05 05:00:00, , ,209.4332848, -1.7210467,
 2016-Nov-05 06:00:00, , ,211.5292804, -1.7752728,
 2016-Nov-05 07:00:00, , ,213.6255811, -1.8271294,
 2016-Nov-05 08:00:00, , ,215.7221863, -1.8765462,
 2016-Nov-05 09:00:00, , ,217.8190944, -1.9234564,
 2016-Nov-05 10:00:00, , ,219.9163032, -1.9677964,
 2016-Nov-05 11:00:00, , ,222.0138099, -2.0095058,
 2016-Nov-05 12:00:00, , ,224.1116108, -2.0485279,
 2016-Nov-05 13:00:00, , ,226.2097018, -2.0848096,
 2016-Nov-05 14:00:00, , ,228.3080779, -2.1183014,
 2016-Nov-05 15:00:00, , ,230.4067334, -2.1489574,
 2016-Nov-05 16:00:00, , ,232.5056621, -2.1767356,
 2016-Nov-05 17:00:00, , ,234.6048571, -2.2015978,
 2016-Nov-05 18:00:00, , ,236.7043110, -2.2235097,
 2016-Nov-05 19:00:00, , ,238.8040157, -2.2424409,
 2016-Nov-05 20:00:00, , ,240.9039624, -2.2583653,
 2016-Nov-05 21:00:00, , ,243.0041420, -2.2712603,
 2016-Nov-05 22:00:00, , ,245.1045449, -2.2811079,
 2016-Nov-05 23:00:00, , ,247.2051606, -2.2878939,
 2016-Nov-06 00:00:00, , ,249.3059787, -2.2916083,
 2016-Nov-06 01:00:00, , ,251.4069880, -2.2922453,
 2016-Nov-06 02:00:00, , ,253.5081769, -2.2898033,
 2016-Nov-06 03:00:00, , ,255.6095336, -2.2842846,
 2016-Nov-06 04:00:00, , ,257.7110459, -2.2756960,
 2016-Nov-06 05:00:00, , ,259.8127012, -2.2640484,
 2016-Nov-06 06:00:00, , ,261.9144868, -2.2493567,
 2016-Nov-06 07:00:00, , ,264.0163897, -2.2316401,
 2016-Nov-06 08:00:00, , ,266.1183967, -2.2109219,
 2016-Nov-06 09:00:00, , ,268.2204946, -2.1872293,
 2016-Nov-06 10:00:00, , ,270.3226701, -2.1605939,
 2016-Nov-06 11:00:00, , ,272.4249097, -2.1310510,
 2016-Nov-06 12:00:00, , ,274.5272002, -2.0986401,
 2016-Nov-06 13:00:00, , ,276.6295282, -2.0634044,
 2016-Nov-06 14:00:00, , ,278.7318809, -2.0253913,
 2016-Nov-06 15:00:00, , ,280.8342454, -1.9846515,
 2016-Nov-06 16:00:00, , ,282.9366093, -1.9412400,
 2016-Nov-06 17:00:00, , ,285.0389602, -1.8952150,
 2016-Nov-06 18:00:00, , ,287.1412868, -1.8466384,
 2016-Nov-06 19:00:00, , ,289.2435779, -1.7955757,
 2016-Nov-06 20:00:00, , ,291.3458231, -1.7420957,
